[{"OBJECT_NAME":"COSMOS 2556","OBJECT_ID":"2022-054A","EPOCH":"2026-03-10T00:10:17.786784","MEAN_MOTION":15.25603379,"ECCENTRICITY":0.00026445,"INCLINATION":97.619,"RA_OF_ASC_NODE":16.747,"ARG_OF_PERICENTER":87.0138,"MEAN_ANOMALY":273.1402,"EPHEMERIS_TYPE":0,"CLASSIFICATION_TYPE":"U","NORAD_CAT_ID":52713,"ELEMENT_SET_NO":999,"REV_AT_EPOCH":21161,"BSTAR":0.00015936962,"MEAN_MOTION_DOT":3.973e-5,"MEAN_MOTION_DDOT":0},{"OBJECT_NAME":"FENGYUN 1C DEB","OBJECT_ID":"1999-025DXL","EPOCH":"2026-02-25T04:10:22.321344","MEAN_MOTION":15.11307044,"ECCENTRICITY":0.00591738,"INCLINATION":99.4273,"RA_OF_ASC_NODE":43.0945,"ARG_OF_PERICENTER":165.3437,"MEAN_ANOMALY":194.9519,"EPHEMERIS_TYPE":0,"CLASSIFICATION_TYPE":"U","NORAD_CAT_ID":36283,"ELEMENT_SET_NO":999,"REV_AT_EPOCH":67788,"BSTAR":0.0012995165,"MEAN_MOTION_DOT":0.00022794,"MEAN_MOTION_DDOT":0}]
